{
  "type": "FeatureCollection",
  "features": [
    {
      "type": "Feature",
      "properties": {
        "norad_id": 29268,
        "name": "ARIRANG-2 (KOMPSAT-2)",
        "group": "resource",
        "lat": -81.49964352026156,
        "lon": -72.06827235764075,
        "alt_km": 679.1592973528677,
        "timestamp": "2025-12-12T09:49:08.384408+00:00",
        "meta_object_name": "ARIRANG-2 (KOMPSAT-2)",
        "meta_object_id": "2006-031A",
        "meta_epoch": "2025-12-12T04:18:01.171872",
        "meta_mean_motion": 14.64492194,
        "meta_eccentricity": 0.0013554,
        "meta_inclination": 97.8263,
        "meta_ra_of_asc_node": 174.6794,
        "meta_arg_of_pericenter": 311.2691,
        "meta_mean_anomaly": 183.937,
        "meta_ephemeris_type": 0,
        "meta_classification_type": "U",
        "meta_norad_cat_id": 29268,
        "meta_element_set_no": 999,
        "meta_rev_at_epoch": 3410,
        "meta_bstar": 0.00010603,
        "meta_mean_motion_dot": 5.17e-06,
        "meta_mean_motion_ddot": 0,
        "tle_line1": "1 29268U 06031A   25346.17918023  .00000517  00000+0  10603-3 0  9993",
        "tle_line2": "2 29268  97.8263 174.6794 0013554 311.2691 183.9370 14.64492194 34106"
      },
      "geometry": {
        "type": "Point",
        "coordinates": [
          -72.06827235764075,
          -81.49964352026156
        ]
      }
    },
    {
      "type": "Feature",
      "properties": {
        "norad_id": 29709,
        "name": "LAPAN-TUBSAT",
        "group": "resource",
        "lat": 3.5034508290020505,
        "lon": 157.0600249775523,
        "alt_km": 615.9227513784981,
        "timestamp": "2025-12-12T09:49:08.384419+00:00",
        "meta_object_name": "LAPAN-TUBSAT",
        "meta_object_id": "2007-001A",
        "meta_epoch": "2025-12-12T04:10:47.550144",
        "meta_mean_motion": 14.85667916,
        "meta_eccentricity": 0.0013634,
        "meta_inclination": 98.1261,
        "meta_ra_of_asc_node": 336.319,
        "meta_arg_of_pericenter": 75.6504,
        "meta_mean_anomaly": 284.6223,
        "meta_ephemeris_type": 0,
        "meta_classification_type": "U",
        "meta_norad_cat_id": 29709,
        "meta_element_set_no": 999,
        "meta_rev_at_epoch": 2338,
        "meta_bstar": 9.5582e-05,
        "meta_mean_motion_dot": 7.72e-06,
        "meta_mean_motion_ddot": 0,
        "tle_line1": "1 29709U 07001A   25346.17416146  .00000772  00000+0  95582-4 0  9993",
        "tle_line2": "2 29709  98.1261 336.3190 0013634  75.6504 284.6223 14.85667916 23381"
      },
      "geometry": {
        "type": "Point",
        "coordinates": [
          157.0600249775523,
          3.5034508290020505
        ]
      }
    },
    {
      "type": "Feature",
      "properties": {
        "norad_id": 31113,
        "name": "HAIYANG-1B",
        "group": "resource",
        "lat": 52.539880231280456,
        "lon": 161.72649497962118,
        "alt_km": 783.1684396704413,
        "timestamp": "2025-12-12T09:49:08.384430+00:00",
        "meta_object_name": "HAIYANG-1B",
        "meta_object_id": "2007-010A",
        "meta_epoch": "2025-12-11T23:09:42.347808",
        "meta_mean_motion": 14.30964631,
        "meta_eccentricity": 0.0014287,
        "meta_inclination": 98.3314,
        "meta_ra_of_asc_node": 330.2752,
        "meta_arg_of_pericenter": 40.1135,
        "meta_mean_anomaly": 320.11,
        "meta_ephemeris_type": 0,
        "meta_classification_type": "U",
        "meta_norad_cat_id": 31113,
        "meta_element_set_no": 999,
        "meta_rev_at_epoch": 97385,
        "meta_bstar": 9.6517e-05,
        "meta_mean_motion_dot": 2.12e-06,
        "meta_mean_motion_ddot": 0,
        "tle_line1": "1 31113U 07010A   25345.96507347  .00000212  00000+0  96517-4 0  9993",
        "tle_line2": "2 31113  98.3314 330.2752 0014287  40.1135 320.1100 14.30964631973853"
      },
      "geometry": {
        "type": "Point",
        "coordinates": [
          161.72649497962118,
          52.539880231280456
        ]
      }
    },
    {
      "type": "Feature",
      "properties": {
        "norad_id": 31598,
        "name": "COSMO-SKYMED 1",
        "group": "resource",
        "lat": 58.767184147701705,
        "lon": 5.014656773798453,
        "alt_km": 573.6698371368739,
        "timestamp": "2025-12-12T09:49:08.384441+00:00",
        "meta_object_name": "COSMO-SKYMED 1",
        "meta_object_id": "2007-023A",
        "meta_epoch": "2025-12-12T04:28:00.117408",
        "meta_mean_motion": 14.95757309,
        "meta_eccentricity": 0.000116,
        "meta_inclination": 97.8835,
        "meta_ra_of_asc_node": 171.5816,
        "meta_arg_of_pericenter": 88.511,
        "meta_mean_anomaly": 271.6243,
        "meta_ephemeris_type": 0,
        "meta_classification_type": "U",
        "meta_norad_cat_id": 31598,
        "meta_element_set_no": 999,
        "meta_rev_at_epoch": 182,
        "meta_bstar": 0.00055658,
        "meta_mean_motion_dot": 6.147e-05,
        "meta_mean_motion_ddot": 0,
        "tle_line1": "1 31598U 07023A   25346.18611247  .00006147  00000+0  55658-3 0  9997",
        "tle_line2": "2 31598  97.8835 171.5816 0001160  88.5110 271.6243 14.95757309  1824"
      },
      "geometry": {
        "type": "Point",
        "coordinates": [
          5.014656773798453,
          58.767184147701705
        ]
      }
    },
    {
      "type": "Feature",
      "properties": {
        "norad_id": 31698,
        "name": "TERRASAR-X",
        "group": "resource",
        "lat": 70.1803827238481,
        "lon": -166.92975746339135,
        "alt_km": 500.37236341587413,
        "timestamp": "2025-12-12T09:49:08.384451+00:00",
        "meta_object_name": "TERRASAR-X",
        "meta_object_id": "2007-026A",
        "meta_epoch": "2025-12-11T11:12:43.517376",
        "meta_mean_motion": 15.19155336,
        "meta_eccentricity": 0.00018891,
        "meta_inclination": 97.4455,
        "meta_ra_of_asc_node": 350.8663,
        "meta_arg_of_pericenter": 92.9175,
        "meta_mean_anomaly": 267.2276,
        "meta_ephemeris_type": 0,
        "meta_classification_type": "U",
        "meta_norad_cat_id": 31698,
        "meta_element_set_no": 999,
        "meta_rev_at_epoch": 2472,
        "meta_bstar": 9.3381918e-05,
        "meta_mean_motion_dot": 1.895e-05,
        "meta_mean_motion_ddot": 0,
        "tle_line1": "1 31698U 07026A   25345.46717034  .00001895  00000+0  93382-4 0  9994",
        "tle_line2": "2 31698  97.4455 350.8663 0001889  92.9175 267.2276 15.19155336 24729"
      },
      "geometry": {
        "type": "Point",
        "coordinates": [
          -166.92975746339135,
          70.1803827238481
        ]
      }
    },
    {
      "type": "Feature",
      "properties": {
        "norad_id": 32060,
        "name": "WORLDVIEW-1 (WV-1)",
        "group": "resource",
        "lat": 74.99283658524257,
        "lon": -47.177853709189485,
        "alt_km": 484.0962939507399,
        "timestamp": "2025-12-12T09:49:08.384478+00:00",
        "meta_object_name": "WORLDVIEW-1 (WV-1)",
        "meta_object_id": "2007-041A",
        "meta_epoch": "2025-12-11T20:46:03.519264",
        "meta_mean_motion": 15.24666792,
        "meta_eccentricity": 7.76e-05,
        "meta_inclination": 97.3834,
        "meta_ra_of_asc_node": 103.3584,
        "meta_arg_of_pericenter": 106.7241,
        "meta_mean_anomaly": 253.4082,
        "meta_ephemeris_type": 0,
        "meta_classification_type": "U",
        "meta_norad_cat_id": 32060,
        "meta_element_set_no": 999,
        "meta_rev_at_epoch": 1434,
        "meta_bstar": 0.00050525,
        "meta_mean_motion_dot": 0.00012422,
        "meta_mean_motion_ddot": 0,
        "tle_line1": "1 32060U 07041A   25345.86531851  .00012422  00000+0  50525-3 0  9999",
        "tle_line2": "2 32060  97.3834 103.3584 0000776 106.7241 253.4082 15.24666792 14346"
      },
      "geometry": {
        "type": "Point",
        "coordinates": [
          -47.177853709189485,
          74.99283658524257
        ]
      }
    },
    {
      "type": "Feature",
      "properties": {
        "norad_id": 32289,
        "name": "YAOGAN-3",
        "group": "resource",
        "lat": -23.230902351815647,
        "lon": 16.426058911065205,
        "alt_km": 603.9924685694295,
        "timestamp": "2025-12-12T09:49:08.384492+00:00",
        "meta_object_name": "YAOGAN-3",
        "meta_object_id": "2007-055A",
        "meta_epoch": "2025-12-12T05:05:18.299904",
        "meta_mean_motion": 14.89855067,
        "meta_eccentricity": 0.0001213,
        "meta_inclination": 97.8367,
        "meta_ra_of_asc_node": 12.8415,
        "meta_arg_of_pericenter": 74.9375,
        "meta_mean_anomaly": 285.1977,
        "meta_ephemeris_type": 0,
        "meta_classification_type": "U",
        "meta_norad_cat_id": 32289,
        "meta_element_set_no": 999,
        "meta_rev_at_epoch": 97801,
        "meta_bstar": 0.0005049,
        "meta_mean_motion_dot": 4.797e-05,
        "meta_mean_motion_ddot": 0,
        "tle_line1": "1 32289U 07055A   25346.21201736  .00004797  00000+0  50490-3 0  9990",
        "tle_line2": "2 32289  97.8367  12.8415 0001213  74.9375 285.1977 14.89855067978016"
      },
      "geometry": {
        "type": "Point",
        "coordinates": [
          16.426058911065205,
          -23.230902351815647
        ]
      }
    }
  ]
}